[{"OBJECT_NAME":"TOMORROW-S2","OBJECT_ID":"2024-149T","EPOCH":"2026-03-09T18:02:42.746496","MEAN_MOTION":15.30674935,"ECCENTRICITY":0.0001648,"INCLINATION":97.3857,"RA_OF_ASC_NODE":150.0385,"ARG_OF_PERICENTER":234.3331,"MEAN_ANOMALY":125.7757,"EPHEMERIS_TYPE":0,"CLASSIFICATION_TYPE":"U","NORAD_CAT_ID":60485,"ELEMENT_SET_NO":999,"REV_AT_EPOCH":8686,"BSTAR":0.00027683033,"MEAN_MOTION_DOT":8.133e-5,"MEAN_MOTION_DDOT":0},{"OBJECT_NAME":"STARLINK-32790","OBJECT_ID":"2025-034V","EPOCH":"2026-03-09T21:23:00.497472","MEAN_MOTION":15.30199536,"ECCENTRICITY":8.896e-5,"INCLINATION":53.1569,"RA_OF_ASC_NODE":257.4706,"ARG_OF_PERICENTER":103.4612,"MEAN_ANOMALY":256.6488,"EPHEMERIS_TYPE":0,"CLASSIFICATION_TYPE":"U","NORAD_CAT_ID":63048,"ELEMENT_SET_NO":999,"REV_AT_EPOCH":5911,"BSTAR":0.0011224324,"MEAN_MOTION_DOT":0.00033031,"MEAN_MOTION_DDOT":0}]
